[{"OBJECT_NAME":"STARLINK-34316","OBJECT_ID":"2025-142M","EPOCH":"2026-03-09T23:14:56.718528","MEAN_MOTION":14.98336567,"ECCENTRICITY":0.00026396,"INCLINATION":70.0008,"RA_OF_ASC_NODE":313.7099,"ARG_OF_PERICENTER":268.2564,"MEAN_ANOMALY":91.8293,"EPHEMERIS_TYPE":0,"CLASSIFICATION_TYPE":"U","NORAD_CAT_ID":64707,"ELEMENT_SET_NO":999,"REV_AT_EPOCH":3969,"BSTAR":0.00012875823,"MEAN_MOTION_DOT":1.444e-5,"MEAN_MOTION_DDOT":0},{"OBJECT_NAME":"SKYKRAFT-4E","OBJECT_ID":"2025-154L","EPOCH":"2026-03-09T17:52:42.156768","MEAN_MOTION":14.96573469,"ECCENTRICITY":0.00042366,"INCLINATION":97.6795,"RA_OF_ASC_NODE":135.3397,"ARG_OF_PERICENTER":218.3459,"MEAN_ANOMALY":141.7462,"EPHEMERIS_TYPE":0,"CLASSIFICATION_TYPE":"U","NORAD_CAT_ID":65227,"ELEMENT_SET_NO":999,"REV_AT_EPOCH":3245,"BSTAR":0.00070463663,"MEAN_MOTION_DOT":7.969e-5,"MEAN_MOTION_DDOT":0}]
